CCSDS_OMM_VERS,COMMENT,CREATION_DATE,ORIGINATOR,OBJECT_NAME,OBJECT_ID,CENTER_NAME,REF_FRAME,TIME_SYSTEM,MEAN_ELEMENT_THEORY,EPOCH,MEAN_MOTION,ECCENTRICITY,INCLINATION,RA_OF_ASC_NODE,ARG_OF_PERICENTER,MEAN_ANOMALY,EPHEMERIS_TYPE,CLASSIFICATION_TYPE,NORAD_CAT_ID,ELEMENT_SET_NO,REV_AT_EPOCH,BSTAR,MEAN_MOTION_DOT,MEAN_MOTION_DDOT,SEMIMAJOR_AXIS,PERIOD,APOAPSIS,PERIAPSIS,OBJECT_TYPE,RCS_SIZE,COUNTRY_CODE,LAUNCH_DATE,SITE,DECAY_DATE,FILE,GP_ID,TLE_LINE0,TLE_LINE1,TLE_LINE2
"2.0","GENERATED VIA SPACE-TRACK.ORG API","2020-05-23T17:37:52","18 SPCS","ORBCOMM FM 30","1999-065A","EARTH","TEME","UTC","SGP4","2020-05-23T04:38:14.493120","14.32879913","0.00052500","45.0315","166.2400","171.6523","188.4411","0","U","25980","999","6873","0.00004939500000","-0.00000005","0.0000000000000","7160.257","100.496","785.881","778.363","PAYLOAD","MEDIUM","ORB","1999-12-04","AFETR","","2753658","154432018","0 ORBCOMM FM 30","1 25980U 99065A   20144.19322330 -.00000005 +00000-0 +49395-4 0  9997","2 25980 045.0315 166.2400 0005250 171.6523 188.4411 14.32879913068738"
"2.0","GENERATED VIA SPACE-TRACK.ORG API","2020-05-23T01:06:45","18 SPCS","ORBCOMM FM 30","1999-065A","EARTH","TEME","UTC","SGP4","2020-05-22T11:54:14.488128","14.32879688","0.00052040","45.0315","169.5166","167.9621","192.1350","0","U","25980","999","6863","0.00004877600000","-0.00000006","0.0000000000000","7160.258","100.496","785.849","778.397","PAYLOAD","MEDIUM","ORB","1999-12-04","AFETR","","2753491","154407971","0 ORBCOMM FM 30","1 25980U 99065A   20143.49600102 -.00000006 +00000-0 +48776-4 0  9998","2 25980 045.0315 169.5166 0005204 167.9621 192.1350 14.32879688068631"
"2.0","GENERATED VIA SPACE-TRACK.ORG API","2020-05-22T14:36:09","18 SPCS","ORBCOMM FM 30","1999-065A","EARTH","TEME","UTC","SGP4","2020-05-22T08:33:26.484192","14.32879621","0.00051970","45.0315","170.1719","167.2779","192.8199","0","U","25980","999","6914","0.00004737100000","-0.00000010","0.0000000000000","7160.258","100.496","785.844","778.402","PAYLOAD","MEDIUM","ORB","1999-12-04","AFETR","","2753283","154376149","0 ORBCOMM FM 30","1 25980U 99065A   20143.35655653 -.00000010  00000-0  47371-4 0  9999","2 25980  45.0315 170.1719 0005197 167.2779 192.8199 14.32879621 69143"
"2.0","GENERATED VIA SPACE-TRACK.ORG API","2020-05-22T17:59:49","18 SPCS","ORBCOMM FM 30","1999-065A","EARTH","TEME","UTC","SGP4","2020-05-22T01:51:50.478048","14.32879500","0.00051780","45.0315","171.4824","165.8276","194.2717","0","U","25980","999","6857","0.00004593800000","-0.00000014","0.0000000000000","7160.258","100.496","785.831","778.416","PAYLOAD","MEDIUM","ORB","1999-12-04","AFETR","","2753373","154385665","0 ORBCOMM FM 30","1 25980U 99065A   20143.07766757 -.00000014 +00000-0 +45938-4 0  9997","2 25980 045.0315 171.4824 0005178 165.8276 194.2717 14.32879500068573"
"2.0","GENERATED VIA SPACE-TRACK.ORG API","2020-05-21T18:04:28","18 SPCS","ORBCOMM FM 30","1999-065A","EARTH","TEME","UTC","SGP4","2020-05-21T12:28:38.458848","14.32879331","0.00051450","45.0314","174.1038","162.8016","197.3006","0","U","25980","999","6849","0.00004598100000","-0.00000014","0.0000000000000","7160.259","100.496","785.808","778.440","PAYLOAD","MEDIUM","ORB","1999-12-04","AFETR","","2752775","154332169","0 ORBCOMM FM 30","1 25980U 99065A   20142.51988957 -.00000014 +00000-0 +45981-4 0  9991","2 25980 045.0314 174.1038 0005145 162.8016 197.3006 14.32879331068490"
"2.0","GENERATED VIA SPACE-TRACK.ORG API","2020-05-21T18:04:28","18 SPCS","CZ-4 DEB","1999-057SK","EARTH","TEME","UTC","SGP4","2020-05-21T06:25:39.053568","14.46823961","0.01142730","98.7039","156.0635","268.3728","148.9079","0","U","35331","999","33547","0.00016216000000","0.00000584","0.0000000000000","7114.177","99.528","817.338","654.746","DEBRIS","SMALL","PRC","1999-10-14","TSC","","2752775","154337406","0 CZ-4 DEB","1 35331U 99057SK  20142.26781312 +.00000584 +00000-0 +16216-3 0  9990","2 35331 098.7039 156.0635 0114273 268.3728 148.9079 14.46823961335477"
"2.0","GENERATED VIA SPACE-TRACK.ORG API","2020-05-21T13:26:09","18 SPCS","ORBCOMM FM 30","1999-065A","EARTH","TEME","UTC","SGP4","2020-05-21T05:47:02.444064","14.32879206","0.00051320","45.0314","175.4143","161.3700","198.7335","0","U","25980","999","6898","0.00004319500000","-0.00000022","0.0000000000000","7160.259","100.496","785.799","778.450","PAYLOAD","MEDIUM","ORB","1999-12-04","AFETR","","2752698","154323346","0 ORBCOMM FM 30","1 25980U 99065A   20142.24100051 -.00000022  00000-0  43195-4 0  9996","2 25980  45.0314 175.4143 0005132 161.3700 198.7335 14.32879206 68986"
"2.0","GENERATED VIA SPACE-TRACK.ORG API","2020-05-20T22:26:09","18 SPCS","CZ-4 DEB","1999-057SK","EARTH","TEME","UTC","SGP4","2020-05-20T19:20:58.458624","14.46823264","0.01142660","98.7038","155.5889","269.7969","264.6976","0","U","35331","999","91318","0.00016099000000","0.00000579","0.0000000000000","7114.180","99.528","817.335","654.754","DEBRIS","SMALL","PRC","1999-10-14","TSC","","2752380","154296204","0 CZ-4 DEB","1 35331U 99057SK  20141.80623216  .00000579  00000-0  16099-3 0  9990","2 35331  98.7038 155.5889 0114266 269.7969 264.6976 14.46823264913183"
"2.0","GENERATED VIA SPACE-TRACK.ORG API","2020-05-21T04:01:44","18 SPCS","ORBCOMM FM 30","1999-065A","EARTH","TEME","UTC","SGP4","2020-05-20T14:43:26.409504","14.32879019","0.00050910","45.0314","178.3633","157.9356","202.1710","0","U","25980","999","6836","0.00004397800000","-0.00000020","0.0000000000000","7160.260","100.496","785.770","778.480","PAYLOAD","MEDIUM","ORB","1999-12-04","AFETR","","2752466","154304984","0 ORBCOMM FM 30","1 25980U 99065A   20141.61350011 -.00000020 +00000-0 +43978-4 0  9996","2 25980 045.0314 178.3633 0005091 157.9356 202.1710 14.32879019068365"
"2.0","GENERATED VIA SPACE-TRACK.ORG API","2020-05-20T20:44:20","18 SPCS","ORBCOMM FM 30","1999-065A","EARTH","TEME","UTC","SGP4","2020-05-20T13:03:02.404512","14.32879000","0.00050880","45.0314","178.6909","157.5594","202.5476","0","U","25980","999","6835","0.00004444900000","-0.00000018","0.0000000000000","7160.260","100.496","785.768","778.482","PAYLOAD","MEDIUM","ORB","1999-12-04","AFETR","","2752372","154283035","0 ORBCOMM FM 30","1 25980U 99065A   20141.54377783 -.00000018 +00000-0 +44449-4 0  9994","2 25980 045.0314 178.6909 0005088 157.5594 202.5476 14.32879000068352"
"2.0","GENERATED VIA SPACE-TRACK.ORG API","2020-05-20T06:46:09","18 SPCS","ORBCOMM FM 30","1999-065A","EARTH","TEME","UTC","SGP4","2020-05-20T03:00:38.370240","14.32878890","0.00050640","45.0314","180.6568","155.3718","204.7372","0","U","25980","999","6882","0.00004572000000","-0.00000015","0.0000000000000","7160.260","100.496","785.751","778.500","PAYLOAD","MEDIUM","ORB","1999-12-04","AFETR","","2751952","154266733","0 ORBCOMM FM 30","1 25980U 99065A   20141.12544410 -.00000015  00000-0  45720-4 0  9991","2 25980  45.0314 180.6568 0005064 155.3718 204.7372 14.32878890 68821"
"2.0","GENERATED VIA SPACE-TRACK.ORG API","2020-05-20T01:49:03","18 SPCS","ORBCOMM FM 30","1999-065A","EARTH","TEME","UTC","SGP4","2020-05-19T20:19:02.347680","14.32878821","0.00050470","45.0315","181.9675","153.8270","206.2833","0","U","25980","999","6825","0.00004548300000","-0.00000016","0.0000000000000","7160.261","100.496","785.739","778.512","PAYLOAD","MEDIUM","ORB","1999-12-04","AFETR","","2751879","154252405","0 ORBCOMM FM 30","1 25980U 99065A   20140.84655495 -.00000016 +00000-0 +45483-4 0  9992","2 25980 045.0315 181.9675 0005047 153.8270 206.2833 14.32878821068252"
"2.0","GENERATED VIA SPACE-TRACK.ORG API","2020-05-19T19:13:02","18 SPCS","ORBCOMM FM 30","1999-065A","EARTH","TEME","UTC","SGP4","2020-05-19T11:57:02.320128","14.32878736","0.00050300","45.0315","183.6058","151.9118","208.2001","0","U","25980","999","6820","0.00004789600000","-0.00000009","0.0000000000000","7160.261","100.496","785.728","778.524","PAYLOAD","MEDIUM","ORB","1999-12-04","AFETR","","2751701","154228454","0 ORBCOMM FM 30","1 25980U 99065A   20140.49794352 -.00000009 +00000-0 +47896-4 0  9991","2 25980 045.0315 183.6058 0005030 151.9118 208.2001 14.32878736068207"
"2.0","GENERATED VIA SPACE-TRACK.ORG API","2020-05-19T19:13:02","18 SPCS","CZ-4 DEB","1999-057SK","EARTH","TEME","UTC","SGP4","2020-05-19T06:17:43.054368","14.46821188","0.01142740","98.7040","154.0020","274.4943","143.0036","0","U","35331","999","33518","0.00015732000000","0.00000565","0.0000000000000","7114.186","99.528","817.348","654.755","DEBRIS","SMALL","PRC","1999-10-14","TSC","","2751701","154233691","0 CZ-4 DEB","1 35331U 99057SK  20140.26230387 +.00000565 +00000-0 +15732-3 0  9990","2 35331 098.7040 154.0020 0114274 274.4943 143.0036 14.46821188335189"
"2.0","GENERATED VIA SPACE-TRACK.ORG API","2020-05-19T01:16:54","18 SPCS","ORBCOMM FM 30","1999-065A","EARTH","TEME","UTC","SGP4","2020-05-18T20:53:26.252736","14.32878635","0.00049860","45.0315","186.5547","148.4915","211.6231","0","U","25980","999","6811","0.00005113400000","0.00000000","0.0000000000000","7160.261","100.496","785.696","778.556","PAYLOAD","MEDIUM","ORB","1999-12-04","AFETR","","2751235","154198247","0 ORBCOMM FM 30","1 25980U 99065A   20139.87044274 +.00000000 +00000-0 +51134-4 0  9992","2 25980 045.0315 186.5547 0004986 148.4915 211.6231 14.32878635068118"
"2.0","GENERATED VIA SPACE-TRACK.ORG API","2020-05-19T06:46:09","18 SPCS","ORBCOMM FM 30","1999-065A","EARTH","TEME","UTC","SGP4","2020-05-18T20:53:26.252736","14.32878635","0.00049860","45.0315","186.5547","148.4915","211.6231","0","U","25980","999","6864","0.00005113400000","0.00000000","0.0000000000000","7160.261","100.496","785.696","778.556","PAYLOAD","MEDIUM","ORB","1999-12-04","AFETR","","2751330","154213219","0 ORBCOMM FM 30","1 25980U 99065A   20139.87044274  .00000000  00000-0  51134-4 0  9992","2 25980  45.0315 186.5547 0004986 148.4915 211.6231 14.32878635 68646"
